DIRECTV 11              
1 32729U 08013A   26062.15392248 -.00000141  00000+0  00000+0 0  9990
2 32729   0.0176 320.4608 0000283  20.2789 136.3911  1.00271769 44536
GALAXY 18 (G-18)        
1 32951U 08024A   26062.15947694  .00000010  00000+0  00000+0 0  9994
2 32951   0.0190 191.8323 0003030 165.0742  98.4153  1.00272023 44780
INTELSAT 25 (IS-25)     
1 33153U 08034A   26062.12613951 -.00000239  00000+0  00000+0 0  9997
2 33153   2.4341  81.6356 0003823 241.9936 211.1633  1.00270616 64639
GALAXY 19 (G-19)        
1 33376U 08045A   26062.15392248 -.00000155  00000+0  00000+0 0  9999
2 33376   0.0526 266.4217 0003110  87.2398 125.6496  1.00271869 63845
FM-5                    
1 35493U 09034A   26061.36850308 -.00000217  00000+0  00000+0 0  9997
2 35493   0.0413 274.2738 0001015 316.0082 336.3547  1.00271603 45576
INTELSAT 14 (IS-14)     
1 36097U 09064A   26062.01140240 -.00000290  00000+0  00000+0 0  9992
2 36097   0.0162  95.2555 0002570 259.5169 125.0994  1.00271619 59548
INTELSAT 15 (IS-15)     
1 36106U 09067A   26061.62113115 -.00000202  00000+0  00000+0 0  9996
2 36106   0.0205  97.2427 0002371 249.6344 122.2648  1.00271568 40167
DIRECTV 12              
1 36131U 09075A   26062.15392248 -.00000119  00000+0  00000+0 0  9995
2 36131   0.0185 328.1886 0000339  34.4410 110.9805  1.00272001 45496
INTELSAT 16 (IS-16)     
1 36397U 10006A   26062.14280992  .00000000  00000+0  00000+0 0  9994
2 36397   0.0242 133.1569 0002049 220.6804 142.3016  1.00268210 58597
XM-5                    
1 37185U 10053A   26062.15947694 -.00000039  00000+0  00000+0 0  9995
2 37185   0.0687 274.9340 0003383 254.4355 293.7577  1.00271575 56415
INTELSAT 17 (IS-17)     
1 37238U 10065B   26062.10039998 -.00000017  00000+0  00000+0 0  9997
2 37238   0.0257 204.4104 0002409 146.7478 271.8349  1.00269903 52186
INTELSAT 28 (IS-28)     
1 37392U 11016A   26061.72448124 -.00000241  00000+0  00000+0 0  9996
2 37392   1.5311  84.0054 0004519 254.3607  51.2211  1.00270518 52210
INTELSAT 18 (IS-18)     
1 37834U 11056A   26062.12293344  .00000037  00000+0  00000+0 0  9990
2 37834   0.0201 235.7705 0001978 102.0377  47.3071  1.00270327 52746
INTELSAT 22 (IS-22)     
1 38098U 12011A   26062.10161332 -.00000075  00000+0  00000+0 0  9997
2 38098   0.0233 229.1364 0001574 134.2300 266.1833  1.00273789  6120
INTELSAT 19 (IS-19)     
1 38356U 12030A   26062.12007343  .00000000  00000+0  00000+0 0  9995
2 38356   0.0250 151.6079 0003132 206.5311  11.9957  1.00269862 49380
INTELSAT 20 (IS-20)     
1 38740U 12043A   26061.74432800 -.00000041  00000+0  00000+0 0  9999
2 38740   0.0237 125.0071 0002367  39.1993 332.7528  1.00272383 49687
INTELSAT 21 (IS-21)     
1 38749U 12045A   26062.13169716 -.00000301  00000+0  00000+0 0  9996
2 38749   0.0392 269.2190 0001784  75.6488 165.4377  1.00271088 49467
