[{"OBJECT_NAME":"DIRECTV 11","OBJECT_ID":"2008-013A","EPOCH":"2026-03-03T03:41:38.902272","MEAN_MOTION":1.00271769,"ECCENTRICITY":2.83e-5,"INCLINATION":0.0176,"RA_OF_ASC_NODE":320.4608,"ARG_OF_PERICENTER":20.2789,"MEAN_ANOMALY":136.3911,"EPHEMERIS_TYPE":0,"CLASSIFICATION_TYPE":"U","NORAD_CAT_ID":32729,"ELEMENT_SET_NO":999,"REV_AT_EPOCH":4453,"BSTAR":0,"MEAN_MOTION_DOT":-1.41e-6,"MEAN_MOTION_DDOT":0},{"OBJECT_NAME":"GALAXY 18 (G-18)","OBJECT_ID":"2008-024A","EPOCH":"2026-03-03T03:49:38.807616","MEAN_MOTION":1.00272023,"ECCENTRICITY":0.000303,"INCLINATION":0.019,"RA_OF_ASC_NODE":191.8323,"ARG_OF_PERICENTER":165.0742,"MEAN_ANOMALY":98.4153,"EPHEMERIS_TYPE":0,"CLASSIFICATION_TYPE":"U","NORAD_CAT_ID":32951,"ELEMENT_SET_NO":999,"REV_AT_EPOCH":4478,"BSTAR":0,"MEAN_MOTION_DOT":1.0e-7,"MEAN_MOTION_DDOT":0},{"OBJECT_NAME":"INTELSAT 25 (IS-25)","OBJECT_ID":"2008-034A","EPOCH":"2026-03-03T03:01:38.453664","MEAN_MOTION":1.00270616,"ECCENTRICITY":0.0003823,"INCLINATION":2.4341,"RA_OF_ASC_NODE":81.6356,"ARG_OF_PERICENTER":241.9936,"MEAN_ANOMALY":211.1633,"EPHEMERIS_TYPE":0,"CLASSIFICATION_TYPE":"U","NORAD_CAT_ID":33153,"ELEMENT_SET_NO":999,"REV_AT_EPOCH":6463,"BSTAR":0,"MEAN_MOTION_DOT":-2.39e-6,"MEAN_MOTION_DDOT":0},{"OBJECT_NAME":"GALAXY 19 (G-19)","OBJECT_ID":"2008-045A","EPOCH":"2026-03-03T03:41:38.902272","MEAN_MOTION":1.00271869,"ECCENTRICITY":0.000311,"INCLINATION":0.0526,"RA_OF_ASC_NODE":266.4217,"ARG_OF_PERICENTER":87.2398,"MEAN_ANOMALY":125.6496,"EPHEMERIS_TYPE":0,"CLASSIFICATION_TYPE":"U","NORAD_CAT_ID":33376,"ELEMENT_SET_NO":999,"REV_AT_EPOCH":6384,"BSTAR":0,"MEAN_MOTION_DOT":-1.55e-6,"MEAN_MOTION_DDOT":0},{"OBJECT_NAME":"FM-5","OBJECT_ID":"2009-034A","EPOCH":"2026-03-02T08:50:38.666112","MEAN_MOTION":1.00271603,"ECCENTRICITY":0.00010155,"INCLINATION":0.0413,"RA_OF_ASC_NODE":274.2738,"ARG_OF_PERICENTER":316.0082,"MEAN_ANOMALY":336.3547,"EPHEMERIS_TYPE":0,"CLASSIFICATION_TYPE":"U","NORAD_CAT_ID":35493,"ELEMENT_SET_NO":999,"REV_AT_EPOCH":4557,"BSTAR":0,"MEAN_MOTION_DOT":-2.17e-6,"MEAN_MOTION_DDOT":0},{"OBJECT_NAME":"INTELSAT 14 (IS-14)","OBJECT_ID":"2009-064A","EPOCH":"2026-03-03T00:16:25.167360","MEAN_MOTION":1.00271619,"ECCENTRICITY":0.000257,"INCLINATION":0.0162,"RA_OF_ASC_NODE":95.2555,"ARG_OF_PERICENTER":259.5169,"MEAN_ANOMALY":125.0994,"EPHEMERIS_TYPE":0,"CLASSIFICATION_TYPE":"U","NORAD_CAT_ID":36097,"ELEMENT_SET_NO":999,"REV_AT_EPOCH":5954,"BSTAR":0,"MEAN_MOTION_DOT":-2.9e-6,"MEAN_MOTION_DDOT":0},{"OBJECT_NAME":"INTELSAT 15 (IS-15)","OBJECT_ID":"2009-067A","EPOCH":"2026-03-02T14:54:25.731360","MEAN_MOTION":1.00271568,"ECCENTRICITY":0.0002371,"INCLINATION":0.0205,"RA_OF_ASC_NODE":97.2427,"ARG_OF_PERICENTER":249.6344,"MEAN_ANOMALY":122.2648,"EPHEMERIS_TYPE":0,"CLASSIFICATION_TYPE":"U","NORAD_CAT_ID":36106,"ELEMENT_SET_NO":999,"REV_AT_EPOCH":4016,"BSTAR":0,"MEAN_MOTION_DOT":-2.02e-6,"MEAN_MOTION_DDOT":0},{"OBJECT_NAME":"DIRECTV 12","OBJECT_ID":"2009-075A","EPOCH":"2026-03-03T03:41:38.902272","MEAN_MOTION":1.00272001,"ECCENTRICITY":3.39e-5,"INCLINATION":0.0185,"RA_OF_ASC_NODE":328.1886,"ARG_OF_PERICENTER":34.441,"MEAN_ANOMALY":110.9805,"EPHEMERIS_TYPE":0,"CLASSIFICATION_TYPE":"U","NORAD_CAT_ID":36131,"ELEMENT_SET_NO":999,"REV_AT_EPOCH":4549,"BSTAR":0,"MEAN_MOTION_DOT":-1.19e-6,"MEAN_MOTION_DDOT":0},{"OBJECT_NAME":"INTELSAT 16 (IS-16)","OBJECT_ID":"2010-006A","EPOCH":"2026-03-03T03:25:38.777088","MEAN_MOTION":1.0026821,"ECCENTRICITY":0.0002049,"INCLINATION":0.0242,"RA_OF_ASC_NODE":133.1569,"ARG_OF_PERICENTER":220.6804,"MEAN_ANOMALY":142.3016,"EPHEMERIS_TYPE":0,"CLASSIFICATION_TYPE":"U","NORAD_CAT_ID":36397,"ELEMENT_SET_NO":999,"REV_AT_EPOCH":5859,"BSTAR":0,"MEAN_MOTION_DOT":0,"MEAN_MOTION_DDOT":0},{"OBJECT_NAME":"XM-5","OBJECT_ID":"2010-053A","EPOCH":"2026-03-03T03:49:38.807616","MEAN_MOTION":1.00271575,"ECCENTRICITY":0.0003383,"INCLINATION":0.0687,"RA_OF_ASC_NODE":274.934,"ARG_OF_PERICENTER":254.4355,"MEAN_ANOMALY":293.7577,"EPHEMERIS_TYPE":0,"CLASSIFICATION_TYPE":"U","NORAD_CAT_ID":37185,"ELEMENT_SET_NO":999,"REV_AT_EPOCH":5641,"BSTAR":0,"MEAN_MOTION_DOT":-3.9e-7,"MEAN_MOTION_DDOT":0},{"OBJECT_NAME":"INTELSAT 17 (IS-17)","OBJECT_ID":"2010-065B","EPOCH":"2026-03-03T02:24:34.558272","MEAN_MOTION":1.00269903,"ECCENTRICITY":0.0002409,"INCLINATION":0.0257,"RA_OF_ASC_NODE":204.4104,"ARG_OF_PERICENTER":146.7478,"MEAN_ANOMALY":271.8349,"EPHEMERIS_TYPE":0,"CLASSIFICATION_TYPE":"U","NORAD_CAT_ID":37238,"ELEMENT_SET_NO":999,"REV_AT_EPOCH":5218,"BSTAR":0,"MEAN_MOTION_DOT":-1.7e-7,"MEAN_MOTION_DDOT":0},{"OBJECT_NAME":"INTELSAT 28 (IS-28)","OBJECT_ID":"2011-016A","EPOCH":"2026-03-02T17:23:15.179136","MEAN_MOTION":1.00270518,"ECCENTRICITY":0.0004519,"INCLINATION":1.5311,"RA_OF_ASC_NODE":84.0054,"ARG_OF_PERICENTER":254.3607,"MEAN_ANOMALY":51.2211,"EPHEMERIS_TYPE":0,"CLASSIFICATION_TYPE":"U","NORAD_CAT_ID":37392,"ELEMENT_SET_NO":999,"REV_AT_EPOCH":5221,"BSTAR":0,"MEAN_MOTION_DOT":-2.41e-6,"MEAN_MOTION_DDOT":0},{"OBJECT_NAME":"INTELSAT 18 (IS-18)","OBJECT_ID":"2011-056A","EPOCH":"2026-03-03T02:57:01.449216","MEAN_MOTION":1.00270327,"ECCENTRICITY":0.0001978,"INCLINATION":0.0201,"RA_OF_ASC_NODE":235.7705,"ARG_OF_PERICENTER":102.0377,"MEAN_ANOMALY":47.3071,"EPHEMERIS_TYPE":0,"CLASSIFICATION_TYPE":"U","NORAD_CAT_ID":37834,"ELEMENT_SET_NO":999,"REV_AT_EPOCH":5274,"BSTAR":0,"MEAN_MOTION_DOT":3.7e-7,"MEAN_MOTION_DDOT":0},{"OBJECT_NAME":"INTELSAT 22 (IS-22)","OBJECT_ID":"2012-011A","EPOCH":"2026-03-03T02:26:19.390848","MEAN_MOTION":1.00273789,"ECCENTRICITY":0.0001574,"INCLINATION":0.0233,"RA_OF_ASC_NODE":229.1364,"ARG_OF_PERICENTER":134.23,"MEAN_ANOMALY":266.1833,"EPHEMERIS_TYPE":0,"CLASSIFICATION_TYPE":"U","NORAD_CAT_ID":38098,"ELEMENT_SET_NO":999,"REV_AT_EPOCH":612,"BSTAR":0,"MEAN_MOTION_DOT":-7.5e-7,"MEAN_MOTION_DDOT":0},{"OBJECT_NAME":"INTELSAT 19 (IS-19)","OBJECT_ID":"2012-030A","EPOCH":"2026-03-03T02:52:54.344352","MEAN_MOTION":1.00269862,"ECCENTRICITY":0.0003132,"INCLINATION":0.025,"RA_OF_ASC_NODE":151.6079,"ARG_OF_PERICENTER":206.5311,"MEAN_ANOMALY":11.9957,"EPHEMERIS_TYPE":0,"CLASSIFICATION_TYPE":"U","NORAD_CAT_ID":38356,"ELEMENT_SET_NO":999,"REV_AT_EPOCH":4938,"BSTAR":0,"MEAN_MOTION_DOT":0,"MEAN_MOTION_DDOT":0},{"OBJECT_NAME":"INTELSAT 20 (IS-20)","OBJECT_ID":"2012-043A","EPOCH":"2026-03-02T17:51:49.939200","MEAN_MOTION":1.00272383,"ECCENTRICITY":0.00023673,"INCLINATION":0.0237,"RA_OF_ASC_NODE":125.0071,"ARG_OF_PERICENTER":39.1993,"MEAN_ANOMALY":332.7528,"EPHEMERIS_TYPE":0,"CLASSIFICATION_TYPE":"U","NORAD_CAT_ID":38740,"ELEMENT_SET_NO":999,"REV_AT_EPOCH":4968,"BSTAR":0,"MEAN_MOTION_DOT":-4.1e-7,"MEAN_MOTION_DDOT":0},{"OBJECT_NAME":"INTELSAT 21 (IS-21)","OBJECT_ID":"2012-045A","EPOCH":"2026-03-03T03:09:38.634624","MEAN_MOTION":1.00271088,"ECCENTRICITY":0.0001784,"INCLINATION":0.0392,"RA_OF_ASC_NODE":269.219,"ARG_OF_PERICENTER":75.6488,"MEAN_ANOMALY":165.4377,"EPHEMERIS_TYPE":0,"CLASSIFICATION_TYPE":"U","NORAD_CAT_ID":38749,"ELEMENT_SET_NO":999,"REV_AT_EPOCH":4946,"BSTAR":0,"MEAN_MOTION_DOT":-3.01e-6,"MEAN_MOTION_DDOT":0}]
